{"type": "FeatureCollection", "features": [ {"type": "Feature", "properties": {"norad_id": 34910, "name": "COSMOS 2251 DEB", "group": "cosmos-2251-debris", "lat": 40.072012116790845, "lon": 108.93972912746062, "alt_km": 1460.3673244308966, "timestamp": "2025-12-16T21:38:57.570748+00:00", "meta": {"OBJECT_NAME": "COSMOS 2251 DEB", "OBJECT_ID": "1993-036ADF", "EPOCH": "2025-12-16T00:48:30.580128", "MEAN_MOTION": 13.37690746, "ECCENTRICITY": 0.04679747, "INCLINATION": 73.876, "RA_OF_ASC_NODE": 96.2259, "ARG_OF_PERICENTER": 214.6056, "MEAN_ANOMALY": 328.1497, "EPHEMERIS_TYPE": 0, "CLASSIFICATION_TYPE": "U", "NORAD_CAT_ID": 34910, "ELEMENT_SET_NO": 999, "REV_AT_EPOCH": 81568, "BSTAR": 0.0011529423, "MEAN_MOTION_DOT": 1.118e-05, "MEAN_MOTION_DDOT": 0}, "tle": {"line1": "1 34910U 93036ADF 25350.03368727  .00001118  00000+0  11529-2 0  9999", "line2": "2 34910  73.8760  96.2259 0467974 214.6056 328.1497 13.37690746815682"}}, "geometry": {"type": "Point", "coordinates": [108.93972912746062, 40.072012116790845]}}, {"type": "Feature", "properties": {"norad_id": 34911, "name": "COSMOS 2251 DEB", "group": "cosmos-2251-debris", "lat": -22.20884262021565, "lon": 63.52154343819151, "alt_km": 755.1151895653065, "timestamp": "2025-12-16T21:38:57.570762+00:00", "meta": {"OBJECT_NAME": "COSMOS 2251 DEB", "OBJECT_ID": "1993-036ADG", "EPOCH": "2025-12-16T03:18:31.490208", "MEAN_MOTION": 14.59377827, "ECCENTRICITY": 0.00837527, "INCLINATION": 74.0408, "RA_OF_ASC_NODE": 238.2681, "ARG_OF_PERICENTER": 2.8057, "MEAN_ANOMALY": 147.3682, "EPHEMERIS_TYPE": 0, "CLASSIFICATION_TYPE": "U", "NORAD_CAT_ID": 34911, "ELEMENT_SET_NO": 999, "REV_AT_EPOCH": 88636, "BSTAR": 0.00014266986, "MEAN_MOTION_DOT": 6.77e-06, "MEAN_MOTION_DDOT": 0}, "tle": {"line1": "1 34911U 93036ADG 25350.13786447  .00000677  00000+0  14267-3 0  9996", "line2": "2 34911  74.0408 238.2681 0083752   2.8057 147.3682 14.59377827886365"}}, "geometry": {"type": "Point", "coordinates": [63.52154343819151, -22.20884262021565]}}, {"type": "Feature", "properties": {"norad_id": 34913, "name": "COSMOS 2251 DEB", "group": "cosmos-2251-debris", "lat": -15.575452019237497, "lon": 99.45090799786261, "alt_km": 795.1084461000119, "timestamp": "2025-12-16T21:38:57.570785+00:00", "meta": {"OBJECT_NAME": "COSMOS 2251 DEB", "OBJECT_ID": "1993-036ADJ", "EPOCH": "2025-12-13T12:56:38.472288", "MEAN_MOTION": 14.34637945, "ECCENTRICITY": 0.00203757, "INCLINATION": 74.0284, "RA_OF_ASC_NODE": 281.0321, "ARG_OF_PERICENTER": 30.7723, "MEAN_ANOMALY": 84.8293, "EPHEMERIS_TYPE": 0, "CLASSIFICATION_TYPE": "U", "NORAD_CAT_ID": 34913, "ELEMENT_SET_NO": 999, "REV_AT_EPOCH": 65199, "BSTAR": 8.4132523e-05, "MEAN_MOTION_DOT": 2.12e-06, "MEAN_MOTION_DDOT": 0}, "tle": {"line1": "1 34913U 93036ADJ 25347.53933417  .00000212  00000+0  84133-4 0  9994", "line2": "2 34913  74.0284 281.0321 0020375  30.7723  84.8293 14.34637945651993"}}, "geometry": {"type": "Point", "coordinates": [99.45090799786261, -15.575452019237497]}}, {"type": "Feature", "properties": {"norad_id": 34918, "name": "COSMOS 2251 DEB", "group": "cosmos-2251-debris", "lat": 20.132900775768892, "lon": -48.30245472225023, "alt_km": 696.181438413817, "timestamp": "2025-12-16T21:38:57.570797+00:00", "meta": {"OBJECT_NAME": "COSMOS 2251 DEB", "OBJECT_ID": "1993-036ADP", "EPOCH": "2025-12-16T03:32:45.203424", "MEAN_MOTION": 14.61263595, "ECCENTRICITY": 0.0033386, "INCLINATION": 74.0718, "RA_OF_ASC_NODE": 307.1266, "ARG_OF_PERICENTER": 274.2128, "MEAN_ANOMALY": 100.0438, "EPHEMERIS_TYPE": 0, "CLASSIFICATION_TYPE": "U", "NORAD_CAT_ID": 34918, "ELEMENT_SET_NO": 999, "REV_AT_EPOCH": 65386, "BSTAR": 0.0013983473, "MEAN_MOTION_DOT": 6.93e-05, "MEAN_MOTION_DDOT": 0}, "tle": {"line1": "1 34918U 93036ADP 25350.14774541  .00006930  00000+0  13983-2 0  9997", "line2": "2 34918  74.0718 307.1266 0033386 274.2128 100.0438 14.61263595653864"}}, "geometry": {"type": "Point", "coordinates": [-48.30245472225023, 20.132900775768892]}}, {"type": "Feature", "properties": {"norad_id": 34924, "name": "COSMOS 2251 DEB", "group": "cosmos-2251-debris", "lat": -1.1785099364161375, "lon": 81.17005333429123, "alt_km": 732.8983673769226, "timestamp": "2025-12-16T21:38:57.570807+00:00", "meta": {"OBJECT_NAME": "COSMOS 2251 DEB", "OBJECT_ID": "1993-036ADV", "EPOCH": "2025-12-15T23:11:46.077792", "MEAN_MOTION": 14.60064145, "ECCENTRICITY": 0.00541137, "INCLINATION": 74.0411, "RA_OF_ASC_NODE": 83.2915, "ARG_OF_PERICENTER": 167.1484, "MEAN_ANOMALY": 316.438, "EPHEMERIS_TYPE": 0, "CLASSIFICATION_TYPE": "U", "NORAD_CAT_ID": 34924, "ELEMENT_SET_NO": 999, "REV_AT_EPOCH": 87770, "BSTAR": 0.00064984297, "MEAN_MOTION_DOT": 3.158e-05, "MEAN_MOTION_DDOT": 0}, "tle": {"line1": "1 34924U 93036ADV 25349.96650553  .00003158  00000+0  64984-3 0  9995", "line2": "2 34924  74.0411  83.2915 0054113 167.1484 316.4380 14.60064145877709"}}, "geometry": {"type": "Point", "coordinates": [81.17005333429123, -1.1785099364161375]}}, {"type": "Feature", "properties": {"norad_id": 34944, "name": "COSMOS 2251 DEB", "group": "cosmos-2251-debris", "lat": 37.492527717726745, "lon": 31.6058896574889, "alt_km": 782.0453646776305, "timestamp": "2025-12-16T21:38:57.570817+00:00", "meta": {"OBJECT_NAME": "COSMOS 2251 DEB", "OBJECT_ID": "1993-036ADX", "EPOCH": "2025-12-07T09:30:46.029312", "MEAN_MOTION": 14.14167925, "ECCENTRICITY": 0.02195348, "INCLINATION": 73.7495, "RA_OF_ASC_NODE": 241.6775, "ARG_OF_PERICENTER": 90.2413, "MEAN_ANOMALY": 272.3884, "EPHEMERIS_TYPE": 0, "CLASSIFICATION_TYPE": "U", "NORAD_CAT_ID": 34944, "ELEMENT_SET_NO": 999, "REV_AT_EPOCH": 64007, "BSTAR": 0.00099492053, "MEAN_MOTION_DOT": 2.364e-05, "MEAN_MOTION_DDOT": 0}, "tle": {"line1": "1 34944U 93036ADX 25341.39636608  .00002364  00000+0  99492-3 0  9991", "line2": "2 34944  73.7495 241.6775 0219534  90.2413 272.3884 14.14167925640077"}}, "geometry": {"type": "Point", "coordinates": [31.6058896574889, 37.492527717726745]}}, {"type": "Feature", "properties": {"norad_id": 34946, "name": "COSMOS 2251 DEB", "group": "cosmos-2251-debris", "lat": -50.661824081254665, "lon": 174.60323494112217, "alt_km": 711.8211831229728, "timestamp": "2025-12-16T21:38:57.570828+00:00", "meta": {"OBJECT_NAME": "COSMOS 2251 DEB", "OBJECT_ID": "1993-036ADZ", "EPOCH": "2025-12-11T09:12:32.820480", "MEAN_MOTION": 14.61985522, "ECCENTRICITY": 0.0048688, "INCLINATION": 74.0237, "RA_OF_ASC_NODE": 344.7115, "ARG_OF_PERICENTER": 122.3418, "MEAN_ANOMALY": 238.2476, "EPHEMERIS_TYPE": 0, "CLASSIFICATION_TYPE": "U", "NORAD_CAT_ID": 34946, "ELEMENT_SET_NO": 999, "REV_AT_EPOCH": 88189, "BSTAR": 0.00095647955, "MEAN_MOTION_DOT": 4.849e-05, "MEAN_MOTION_DDOT": 0}, "tle": {"line1": "1 34946U 93036ADZ 25345.38371320  .00004849  00000+0  95648-3 0  9992", "line2": "2 34946  74.0237 344.7115 0048688 122.3418 238.2476 14.61985522881890"}}, "geometry": {"type": "Point", "coordinates": [174.60323494112217, -50.661824081254665]}}, {"type": "Feature", "properties": {"norad_id": 34949, "name": "COSMOS 2251 DEB", "group": "cosmos-2251-debris", "lat": -46.38294017079749, "lon": 84.02243478874915, "alt_km": 630.7239227556292, "timestamp": "2025-12-16T21:38:57.570838+00:00", "meta": {"OBJECT_NAME": "COSMOS 2251 DEB", "OBJECT_ID": "1993-036AEC", "EPOCH": "2025-12-16T00:41:42.487008", "MEAN_MOTION": 14.74023339, "ECCENTRICITY": 0.00802648, "INCLINATION": 74.0185, "RA_OF_ASC_NODE": 103.231, "ARG_OF_PERICENTER": 247.8557, "MEAN_ANOMALY": 111.4083, "EPHEMERIS_TYPE": 0, "CLASSIFICATION_TYPE": "U", "NORAD_CAT_ID": 34949, "ELEMENT_SET_NO": 999, "REV_AT_EPOCH": 88410, "BSTAR": 0.00040106171, "MEAN_MOTION_DOT": 2.742e-05, "MEAN_MOTION_DDOT": 0}, "tle": {"line1": "1 34949U 93036AEC 25350.02896397  .00002742  00000+0  40106-3 0  9997", "line2": "2 34949  74.0185 103.2310 0080264 247.8557 111.4083 14.74023339884109"}}, "geometry": {"type": "Point", "coordinates": [84.02243478874915, -46.38294017079749]}}, {"type": "Feature", "properties": {"norad_id": 34953, "name": "COSMOS 2251 DEB", "group": "cosmos-2251-debris", "lat": -28.84588767559053, "lon": -151.50200385634935, "alt_km": 708.3776215239168, "timestamp": "2025-12-16T21:38:57.570848+00:00", "meta": {"OBJECT_NAME": "COSMOS 2251 DEB", "OBJECT_ID": "1993-036AEG", "EPOCH": "2025-12-15T20:58:44.435424", "MEAN_MOTION": 14.68987416, "ECCENTRICITY": 0.00581924, "INCLINATION": 74.0933, "RA_OF_ASC_NODE": 21.443, "ARG_OF_PERICENTER": 12.5608, "MEAN_ANOMALY": 163.8642, "EPHEMERIS_TYPE": 0, "CLASSIFICATION_TYPE": "U", "NORAD_CAT_ID": 34953, "ELEMENT_SET_NO": 999, "REV_AT_EPOCH": 88174, "BSTAR": 0.0005270651, "MEAN_MOTION_DOT": 3.138e-05, "MEAN_MOTION_DDOT": 0}, "tle": {"line1": "1 34953U 93036AEG 25349.87412541  .00003138  00000+0  52707-3 0  9998", "line2": "2 34953  74.0933  21.4430 0058192  12.5608 163.8642 14.68987416881745"}}, "geometry": {"type": "Point", "coordinates": [-151.50200385634935, -28.84588767559053]}}, {"type": "Feature", "properties": {"norad_id": 34955, "name": "COSMOS 2251 DEB", "group": "cosmos-2251-debris", "lat": 72.176724284172, "lon": -4.865008046726058, "alt_km": 604.783106599064, "timestamp": "2025-12-16T21:38:57.570858+00:00", "meta": {"OBJECT_NAME": "COSMOS 2251 DEB", "OBJECT_ID": "1993-036AEJ", "EPOCH": "2025-12-11T10:00:38.398176", "MEAN_MOTION": 15.00495775, "ECCENTRICITY": 0.00779991, "INCLINATION": 74.0375, "RA_OF_ASC_NODE": 249.1952, "ARG_OF_PERICENTER": 319.1032, "MEAN_ANOMALY": 40.4318, "EPHEMERIS_TYPE": 0, "CLASSIFICATION_TYPE": "U", "NORAD_CAT_ID": 34955, "ELEMENT_SET_NO": 999, "REV_AT_EPOCH": 90014, "BSTAR": 0.0014966224, "MEAN_MOTION_DOT": 0.00020131, "MEAN_MOTION_DDOT": 0}, "tle": {"line1": "1 34955U 93036AEJ 25345.41711109  .00020131  00000+0  14966-2 0  9994", "line2": "2 34955  74.0375 249.1952 0077999 319.1032  40.4318 15.00495775900143"}}, "geometry": {"type": "Point", "coordinates": [-4.865008046726058, 72.176724284172]}}]}